     2.100          NAVIGATION                              RINEX VERSION / TYPE
fic2rin                                 07/13/2017 00:10:51 PGM / RUN BY / DATE
                                                            END OF HEADER
22 17  7 12  8  0  0.0 -.519668683410D-04 -.123918653117D-10  .000000000000D+00
     .910000000000D+02 -.157812500000D+02  .511485591142D-08 -.277129464396D+01
    -.106357038021D-05  .747392978519D-02  .107027590275D-04  .515378736305D+04
     .288000000000D+06  .156462192535D-06 -.227406597371D+01  .428408384323D-07
     .923797253258D+00  .148718750000D+03 -.170491454677D+01 -.812176687562D-08
     .534307970357D-09  .100000000000D+01  .195700000000D+04  .000000000000D+00
     .240000000000D+01  .000000000000D+00 -.176951289177D-07  .910000000000D+02
     .280806000000D+06  .400000000000D+01
23 17  7 12  8  0  0.0 -.214920379221D-03 -.454747350886D-12  .000000000000D+00
     .220000000000D+02  .172812500000D+02  .535915180161D-08  .273736612853D+01
     .836327672005D-06  .118630650686D-01  .546500086784D-05  .515371113586D+04
     .288000000000D+06 -.745058059692D-07 -.118874574241D+01 -.182539224625D-06
     .943825283483D+00  .268468750000D+03 -.244127181942D+01 -.820927052050D-08
     .214294640518D-09  .100000000000D+01  .195700000000D+04  .000000000000D+00
     .240000000000D+01  .000000000000D+00 -.204890966415D-07  .220000000000D+02
     .280806000000D+06  .400000000000D+01
24 17  7 12  8  0  0.0 -.374042429030D-04 -.454747350886D-12  .000000000000D+00
     .190000000000D+02 -.139687500000D+02  .503199531709D-08  .217230849936D+01
    -.737607479095D-06  .571284373291D-02  .883080065250D-05  .515368394470D+04
     .288000000000D+06 -.186264514923D-06 -.165909738327D+00  .502914190292D-07
     .945143796919D+00  .201093750000D+03  .478628730408D+00 -.813533886952D-08
    -.506449667090D-09  .100000000000D+01  .195700000000D+04  .000000000000D+00
     .240000000000D+01  .000000000000D+00  .279396772385D-08  .190000000000D+02
     .280806000000D+06  .400000000000D+01
25 17  7 12  8  0  0.0 -.420301686972D-03 -.648014975013D-11  .000000000000D+00
     .440000000000D+02  .996875000000D+02  .403516808095D-08  .231276673419D+00
     .523775815964D-05  .649818836246D-02  .927411019802D-05  .515357109261D+04
     .288000000000D+06 -.931322574615D-08  .917356289743D+00  .106170773506D-06
     .976933818701D+00  .207187500000D+03  .828451191472D+00 -.790997233924D-08
    -.335728270144D-10  .100000000000D+01  .195700000000D+04  .000000000000D+00
     .240000000000D+01  .000000000000D+00  .558793544769D-08  .440000000000D+02
     .280806000000D+06  .400000000000D+01
26 17  7 12  8  0  0.0 -.475458335131D-03  .716227077646D-11  .000000000000D+00
     .900000000000D+02  .102250000000D+03  .432732310752D-08 -.408984904571D+00
     .516884028912D-05  .180858490057D-02  .995583832264D-05  .515373793602D+04
     .288000000000D+06  .484287738800D-07  .901132601390D+00 -.111758708954D-07
     .958687543699D+00  .187562500000D+03  .837122935359D-01 -.797818946647D-08
    -.621454457501D-10  .100000000000D+01  .195700000000D+04  .000000000000D+00
     .240000000000D+01  .000000000000D+00  .745058059692D-08  .900000000000D+02
     .280806000000D+06  .400000000000D+01
27 17  7 12  8  0  0.0  .292207114398D-03  .670752342558D-11  .000000000000D+00
     .590000000000D+02  .242812500000D+02  .432696594979D-08 -.216850782648D+01
     .133551657200D-05  .489471154287D-02  .197254121304D-05  .515366532707D+04
     .288000000000D+06 -.633299350739D-07  .195745446676D+01 -.279396772385D-07
     .975036510504D+00  .350000000000D+03  .388692826411D+00 -.822819988041D-08
     .141077305007D-09  .100000000000D+01  .195700000000D+04  .000000000000D+00
     .240000000000D+01  .000000000000D+00  .139698386192D-08  .590000000000D+02
     .280806000000D+06  .400000000000D+01
28 17  7 12  8  0  0.0  .628342851996D-03  .306954461848D-11  .000000000000D+00
     .240000000000D+02  .955312500000D+02  .376587114936D-08 -.129033344220D+01
     .508874654770D-05  .197128126165D-01  .854954123497D-05  .515365801620D+04
     .288000000000D+06 -.206753611565D-06  .996603126783D+00  .439584255219D-06
     .988269431080D+00  .233656250000D+03 -.156668709378D+01 -.786568478020D-08
    -.300012496725D-10  .100000000000D+01  .195700000000D+04  .000000000000D+00
     .240000000000D+01  .000000000000D+00 -.111758708954D-07  .240000000000D+02
     .280806000000D+06  .400000000000D+01
29 17  7 12  8  0  0.0  .586268492043D-03 -.375166564481D-11  .000000000000D+00
     .870000000000D+02  .109062500000D+02  .431017953628D-08 -.705487590184D+00
     .499188899994D-06  .651162816212D-03  .169128179550D-05  .515359930229D+04
     .288000000000D+06  .353902578354D-07  .201991472846D+01 -.335276126862D-07
     .981318134445D+00  .358000000000D+03  .645666004066D+00 -.827355891265D-08
     .321441960776D-11  .100000000000D+01  .195700000000D+04  .000000000000D+00
     .340000000000D+01  .000000000000D+00 -.977888703346D-08  .870000000000D+02
     .280806000000D+06  .400000000000D+01
30 17  7 12  8  0  0.0  .150642823428D-03 -.147792889038D-11  .000000000000D+00
     .170000000000D+02 -.125312500000D+02  .495484924650D-08  .128522010024D+01
    -.467523932457D-06  .297577457968D-02  .880099833012D-05  .515365703964D+04
     .288000000000D+06  .447034835815D-07 -.734613837101D-01 -.353902578354D-07
     .947863399664D+00  .200343750000D+03 -.312693376532D+01 -.820391315448D-08
    -.580381318069D-09  .100000000000D+01  .195700000000D+04  .000000000000D+00
     .240000000000D+01  .000000000000D+00  .372529029846D-08  .170000000000D+02
     .280806000000D+06  .400000000000D+01
31 17  7 12  8  0  0.0  .188949983567D-03 -.238742359215D-11  .000000000000D+00
     .820000000000D+02 -.115312500000D+02  .451625954891D-08  .109966923549D+01
    -.482425093651D-06  .843420950696D-02  .903010368347D-05  .515373421860D+04
     .288000000000D+06  .135973095894D-06 -.100579066048D+00  .577419996262D-07
     .966877027863D+00  .203937500000D+03 -.252012441467D+00 -.791675833619D-08
    -.693243162075D-09  .100000000000D+01  .195700000000D+04  .000000000000D+00
     .240000000000D+01  .000000000000D+00 -.135041773319D-07  .820000000000D+02
     .280806000000D+06  .400000000000D+01
32 17  7 12  8  0  0.0 -.461040996015D-03 -.818545231596D-11  .000000000000D+00
     .420000000000D+02  .142187500000D+02  .514057126828D-08 -.156862373691D+01
     .789761543274D-06  .136775686406D-02  .521354377270D-05  .515373208427D+04
     .288000000000D+06  .260770320892D-07 -.118672198396D+01  .316649675369D-07
     .957441901138D+00  .276343750000D+03 -.254024026094D+01 -.828748806429D-08
     .236081262304D-09  .100000000000D+01  .195700000000D+04  .000000000000D+00
     .240000000000D+01  .000000000000D+00  .465661287308D-09  .420000000000D+02
     .280806000000D+06  .400000000000D+01
22 17  7 12  7 59 44.0 -.519668683410D-04 -.123918653117D-10  .000000000000D+00
     .120000000000D+02 -.157812500000D+02  .511485591142D-08 -.277362831721D+01
    -.106357038021D-05  .747393246274D-02  .107027590275D-04  .515378736496D+04
     .287984000000D+06  .156462192535D-06 -.227406581718D+01  .428408384323D-07
     .923797228388D+00  .148718750000D+03 -.170491448533D+01 -.812176687562D-08
     .534307970357D-09  .100000000000D+01  .195700000000D+04  .000000000000D+00
     .240000000000D+01  .000000000000D+00 -.176951289177D-07  .120000000000D+02
     .281706000000D+06  .400000000000D+01
22 17  7 12  9 59 44.0 -.520562753081D-04 -.123918653117D-10  .000000000000D+00
     .230000000000D+02 -.115937500000D+02  .505128183474D-08 -.172360443998D+01
    -.404193997383D-06  .747391255572D-02  .109989196062D-04  .515378639221D+04
     .295184000000D+06  .139698386192D-06 -.227412420370D+01  .154599547386D-06
     .923800928108D+00  .142250000000D+03 -.170482332067D+01 -.817534053575D-08
     .521450291926D-09  .100000000000D+01  .195700000000D+04  .000000000000D+00
     .240000000000D+01  .000000000000D+00 -.176951289177D-07  .230000000000D+02
     .288006000000D+06  .400000000000D+01
 1 17  7 12 10  0  0.0  .567408278584D-04  .341060513165D-12  .000000000000D+00
     .310000000000D+02 -.119750000000D+03  .411660004434D-08  .298654069617D+01
    -.619515776634D-05  .686481001321D-02  .718422234058D-05  .515368947029D+04
     .295200000000D+06  .223517417908D-07  .301474693585D+01 -.335276126862D-07
     .968296931762D+00  .245406250000D+03  .580892391974D+00 -.793461622290D-08
    -.210008747707D-09  .100000000000D+01  .195700000000D+04  .000000000000D+00
     .240000000000D+01  .000000000000D+00  .558793544769D-08  .310000000000D+02
     .288006000000D+06  .400000000000D+01
 2 17  7 12 10  0  0.0  .378845259547D-03 -.841282599140D-11  .000000000000D+00
     .140000000000D+02 -.116093750000D+03  .449447292712D-08 -.298479751810D+01
    -.587850809097D-05  .169351263903D-01  .624917447567D-05  .515354995537D+04
     .295200000000D+06  .150874257088D-06  .296042012856D+01 -.160187482834D-06
     .947223996207D+00  .248906250000D+03 -.197223354107D+01 -.789211445253D-08
    -.151434879299D-09  .100000000000D+01  .195700000000D+04  .000000000000D+00
     .240000000000D+01  .000000000000D+00 -.204890966415D-07  .140000000000D+02
     .288006000000D+06  .400000000000D+01
 3 17  7 12 10  0  0.0 -.881636515260D-04  .306954461848D-11  .000000000000D+00
     .520000000000D+02 -.182500000000D+02  .424446251319D-08  .227966121843D+01
    -.940635800362D-06  .789375510067D-03  .109896063805D-04  .515370790672D+04
     .295200000000D+06  .372529029846D-08 -.222642195175D+01  .335276126862D-07
     .959940070751D+00  .162625000000D+03  .159601285931D+00 -.784639826255D-08
     .524307553800D-09  .100000000000D+01  .195700000000D+04  .000000000000D+00
     .240000000000D+01  .000000000000D+00  .232830643654D-08  .520000000000D+02
     .288006000000D+06  .400000000000D+01
